{
  "norad_id": 67807,
  "name": "STARLINK-36382",
  "history": [
    {
      "epoch": "2026-03-28T19:02:34.602720",
      "apogee_km": 345.57981361376005,
      "perigee_km": 342.2581768642731,
      "latitude_deg": -83.34311780745973,
      "longitude_deg": -43.12821920006536,
      "semi_major_axis_km": 6722.055995239017,
      "eccentricity": 0.00024707,
      "inclination_deg": 97.2824,
      "raan_deg": 275.2636,
      "arg_perigee_deg": 104.1521,
      "mean_anomaly_deg": 256.0019,
      "mean_motion_rev_day": 15.75250308
    },
    {
      "epoch": "2026-03-29T01:08:30.388416",
      "apogee_km": 345.7756556720551,
      "perigee_km": 342.3540549277068,
      "latitude_deg": 63.536470467947176,
      "longitude_deg": -18.73290175991133,
      "semi_major_axis_km": 6722.201855299881,
      "eccentricity": 0.0002545,
      "inclination_deg": 97.2821,
      "raan_deg": 275.5302,
      "arg_perigee_deg": 82.4093,
      "mean_anomaly_deg": 277.7461,
      "mean_motion_rev_day": 15.75199038
    }
  ]
}